ONEWEB-0709             
1 55172U 23004AJ  26021.33305241 -.00000528  00000+0 -15263-2 0  9996
2 55172  87.8817  50.3163 0001369 123.0662 237.0597 13.11417564146623
ONEWEB-0710             
1 55173U 23004AK  26021.49509314  .00000061  00000+0  12453-3 0  9990
2 55173  87.9083  35.0222 0001975  93.5181 266.6177 13.17651587148261
ONEWEB-0711             
1 55174U 23004AL  26021.45683477  .00000444  00000+0  12172-2 0  9992
2 55174  87.8826  50.2688 0002578  98.1608 261.9813 13.11415315146608
ONEWEB-0713             
1 55175U 23004AM  26021.47548670 -.00000381  00000+0 -11122-2 0  9996
2 55175  87.8824  50.2661 0002219  97.4223 262.7157 13.11410959146592
ONEWEB-0715             
1 55176U 23004AN  26021.47038837 -.00000074  00000+0 -24367-3 0  9991
2 55176  87.8821  50.2677 0001786 118.9651 241.1656 13.11416853146638
ONEWEB-0716             
1 55177U 23004AP  26021.48835131  .00000094  00000+0  20820-3 0  9995
2 55177  87.9083  35.0236 0001687  85.0628 275.0696 13.17648885148269
ONEWEB-0717             
1 55178U 23004AQ  26021.47147846  .00000094  00000+0  20823-3 0  9997
2 55178  87.9094  35.0015 0002502  99.2836 260.8578 13.17649045148318
ONEWEB-0719             
1 55179U 23004AR  26021.48161289 -.00000064  00000+0 -19897-3 0  9994
2 55179  87.9093  34.9817 0001842  85.4753 274.6589 13.17646993148265
ONEWEB-0530             
1 55796U 23029A   26021.50106951  .00000129  00000+0  28485-3 0  9997
2 55796  87.9226 303.7480 0002225  77.6898 282.4484 13.20771766141782
ONEWEB-0534             
1 55797U 23029B   26021.48844779  .00000187  00000+0  42812-3 0  9996
2 55797  87.9225 303.7500 0001662  72.4599 287.6716 13.20773316141788
ONEWEB-0556             
1 55798U 23029C   26021.26748281  .00000193  00000+0  44368-3 0  9999
2 55798  87.9228 303.7953 0002232  52.8050 307.3287 13.20771258141755
ONEWEB-0562             
1 55799U 23029D   26021.48213108  .00000103  00000+0  22231-3 0  9995
2 55799  87.9224 303.7336 0002567  70.4952 289.6459 13.20771970141782
ONEWEB-0563             
1 55800U 23029E   26021.47581851  .00000204  00000+0  46929-3 0  9992
2 55800  87.9224 303.7642 0001622  68.1747 291.9559 13.20773311141779
ONEWEB-0564             
1 55801U 23029F   26021.46950750  .00000080  00000+0  16548-3 0  9996
2 55801  87.9220 303.7390 0002088  75.8229 284.3136 13.20773606141788
ONEWEB-0638             
1 55802U 23029G   26021.33351363  .00000169  00000+0  42059-3 0  9992
2 55802  87.9020 319.0334 0002082  67.9728 292.1623 13.14503640140100
ONEWEB-0639             
1 55803U 23029H   26021.32641356 -.00000079  00000+0 -22962-3 0  9999
2 55803  87.9233 334.2053 0000799  54.9057 305.2151 13.19726032139532
ONEWEB-0640             
1 55804U 23029J   26021.34303352  .00000329  00000+0  85210-3 0  9994
2 55804  87.9023 319.0208 0001916  53.3640 306.7666 13.14503165140125
ONEWEB-0641             
1 55805U 23029K   26021.39750402  .00000066  00000+0  13264-3 0  9990
2 55805  87.9244 334.1752 0001602  78.7140 281.4172 13.19725732139558
ONEWEB-0642             
1 55806U 23029L   26021.39275926  .00000056  00000+0  10691-3 0  9994
2 55806  87.9232 334.1946 0000892  79.6832 280.4401 13.19726383139545
ONEWEB-0643             
1 55807U 23029M   26021.31288287 -.00000129  00000+0 -38362-3 0  9999
2 55807  87.9026 319.0134 0001073  88.3573 271.7680 13.14504312140094
ONEWEB-0644             
1 55808U 23029N   26021.38802135  .00000120  00000+0  26709-3 0  9992
2 55808  87.9228 334.2043 0001385  81.5748 278.5541 13.19725027139544
ONEWEB-0645             
1 55809U 23029P   26021.41013126  .00000136  00000+0  30861-3 0  9992
2 55809  87.9224 334.1924 0001399  62.7937 297.3339 13.19727616139544
ONEWEB-0646             
1 55810U 23029Q   26021.35168856  .00000213  00000+0  50011-3 0  9993
2 55810  87.9239 334.1998 0001468  80.0543 280.0755 13.19727431139520
ONEWEB-0648             
1 55811U 23029R   26021.50952080  .00000275  00000+0  70795-3 0  9990
2 55811  87.9030 318.9373 0001074  44.1083 316.0133 13.14504287140125
ONEWEB-0649             
1 55812U 23029S   26021.30115102  .00000108  00000+0  23832-3 0  9990
2 55812  87.9237 334.2067 0001412  70.9296 289.1989 13.19725806139556
ONEWEB-0650             
1 55813U 23029T   26021.29640542  .00000140  00000+0  31710-3 0  9990
2 55813  87.9235 334.2119 0001294  75.8482 284.2794 13.19727244139527
ONEWEB-0652             
1 55814U 23029U   26021.33827132  .00000255  00000+0  65290-3 0  9995
2 55814  87.9022 318.9897 0001872  79.7395 280.3945 13.14503514140076
ONEWEB-0653             
1 55815U 23029V   26021.32241037 -.00000018  00000+0 -83009-4 0  9997
2 55815  87.9024 318.9823 0001877  74.3082 285.8254 13.14503568140103
ONEWEB-0654             
1 55816U 23029W   26021.31764855 -.00000013  00000+0 -68533-4 0  9995
2 55816  87.9025 318.9831 0002088  79.5432 280.5933 13.14504328140128
ONEWEB-0656             
1 55817U 23029X   26020.78138075  .00000023  00000+0  25509-4 0  9990
2 55817  87.9233 303.8375 0002115  79.2404 280.8967 13.20771831141698
ONEWEB-0657             
1 55818U 23029Y   26021.29165788  .00000122  00000+0  27177-3 0  9991
2 55818  87.9225 334.2126 0002130  99.5168 260.6205 13.19720508139535
ONEWEB-0658             
1 55819U 23029Z   26021.36275072  .00000165  00000+0  37933-3 0  9996
2 55819  87.9247 334.1592 0001327  81.1864 278.9419 13.19725792139554
ONEWEB-0660             
1 55820U 23029AA  26021.37157302 -.00000040  00000+0 -14264-3 0  9990
2 55820  87.9036 318.9544 0001647  67.0921 293.0382 13.14503304140110
ONEWEB-0661             
1 55821U 23029AB  26021.33034785  .00000108  00000+0  25778-3 0  9991
2 55821  87.9021 319.0243 0001742  66.9496 293.1817 13.14502862140093
ONEWEB-0662             
1 55822U 23029AC  26021.36521484  .00000197  00000+0  49697-3 0  9996
2 55822  87.9026 319.0243 0001604  66.4610 293.6688 13.14504768140143
ONEWEB-0663             
1 55823U 23029AD  26021.50745639  .00000235  00000+0  54636-3 0  9995
2 55823  87.9244 303.7625 0001384  64.5755 295.5521 13.20857857141789
ONEWEB-0664             
1 55824U 23029AE  26021.22328410  .00000121  00000+0  26551-3 0  9998
2 55824  87.9222 303.8182 0001966  68.0023 292.1319 13.20773098141746
ONEWEB-0665             
1 55825U 23029AF  26021.32715528  .00001694  00000+0  45336-2 0  9997
2 55825  87.9025 319.0038 0001662  69.5946 290.5362 13.14515826140116
ONEWEB-0666             
1 55826U 23029AG  26021.21697526  .00000141  00000+0  31391-3 0  9996
2 55826  87.9226 303.8091 0002076  95.9567 264.1803 13.20772077141750
ONEWEB-0667             
1 55827U 23029AH  26021.28642457  .00000157  00000+0  35387-3 0  9993
2 55827  87.9237 303.7319 0001689  69.9884 290.1431 13.20771834141753
ONEWEB-0669             
1 55828U 23029AJ  26021.50896205  .00000049  00000+0  89343-4 0  9993
2 55828  87.9226 303.7172 0002319  75.9216 284.2174 13.20771403141789
ONEWEB-0670             
1 55829U 23029AK  26021.30496213 -.00000049  00000+0 -16684-3 0  9996
2 55829  87.9025 319.0274 0001865  66.2707 293.8618 13.14502455140132
ONEWEB-0671             
1 55830U 23029AL  26021.35801412  .00000098  00000+0  21147-3 0  9996
2 55830  87.9240 334.1986 0001739  74.2569 285.8756 13.19725726139535
ONEWEB-0672             
1 55831U 23029AM  26021.50422489  .00000017  00000+0  99875-5 0  9993
2 55831  87.9229 303.7008 0001917  82.3214 277.8137 13.20772468141786
ONEWEB-0673             
1 55832U 23029AN  26021.33510896  .00000228  00000+0  53779-3 0  9990
2 55832  87.9242 334.1873 0001769  74.8265 285.3063 13.19726954139536
ONEWEB-0674             
1 55833U 23029AP  26021.34937977  .00000373  00000+0  97123-3 0  9997
2 55833  87.9021 318.9966 0001958  64.4609 295.6723 13.14503457140122
ONEWEB-0675             
1 55834U 23029AQ  26021.35011644  .00000115  00000+0  25559-3 0  9991
2 55834  87.9230 334.2046 0001617  87.6869 272.4449 13.19727348139557
ONEWEB-0720             
1 55835U 23029AR  26021.41802993  .00000139  00000+0  31524-3 0  9999
2 55835  87.9231 334.1907 0001457  73.4342 286.6951 13.19726536139480
ONEWEB-0537             
1 56046U 23043A   26021.21647439  .00000067  00000+0  14290-3 0  9991
2 56046  87.9024 258.0327 0001559  87.6841 272.4468 13.16595934139624
ONEWEB-0538             
1 56047U 23043B   26021.36213222  .00000078  00000+0  17028-3 0  9991
2 56047  87.9023 258.0070 0001274  88.4988 271.6289 13.16595318139655
ONEWEB-0546             
1 56048U 23043C   26021.34946728  .00000126  00000+0  29588-3 0  9992
2 56048  87.9029 258.0050 0001972  96.3763 263.7593 13.16595545139645
ONEWEB-0547             
1 56049U 23043D   26021.39786435 -.00000172  00000+0 -44768-3 0  9995
2 56049  87.9218 273.2553 0001527  80.1448 279.9858 13.21822153138837
ONEWEB-0548             
1 56050U 23043E   26021.37400993 -.00000072  00000+0 -22241-3 0  9998
2 56050  87.9019 258.0018 0001818  67.2881 292.8442 13.16592928139646
ONEWEB-0549             
1 56051U 23043F   26021.23907010  .00000207  00000+0  46973-3 0  9992
2 56051  87.9209 273.2996 0001301  79.7135 280.4146 13.21826705138810
ONEWEB-0550             
1 56052U 23043G   26021.22589387  .00000041  00000+0  66709-4 0  9991
2 56052  87.9211 273.2978 0001678  75.0685 285.0634 13.21824336138811
ONEWEB-0551             
1 56053U 23043H   26021.28854218 -.00000005  00000+0 -46223-4 0  9997
2 56053  87.9003 288.5555 0001282  78.8334 281.2940 13.15548500137089
ONEWEB-0552             
1 56054U 23043J   26021.44805590 -.00000035  00000+0 -11565-3 0  9998
2 56054  87.9210 273.2618 0001397  68.7854 291.3429 13.21825503138840
ONEWEB-0553             
1 56055U 23043K   26021.35579157  .00000017  00000+0  10464-4 0  9992
2 56055  87.9024 258.0087 0001853  86.0969 274.0374 13.16592109139656
ONEWEB-0554             
1 56056U 23043L   26021.34312088  .00000114  00000+0  26484-3 0  9996
2 56056  87.9018 258.0216 0001681  71.4228 288.7085 13.16597015139639
